start=new Date('2023-05-04T00:00:00.000Z').valueOf();
sats=[{"EPOCH":"2023-05-03T23:06:51.352704","DECAY_DATE":null,"CLASSIFICATION_TYPE":"U","RCS_SIZE":"LARGE","SITE":"AFWTR","FILE":"3900281","GP_ID":"231201136","PERIOD":"95.437","MEAN_MOTION_DDOT":"0.0000000000000","ECCENTRICITY":"0.00016530","NORAD_CAT_ID":"54172","INCLINATION":"53.2194","TLE_LINE2":"2 54172  53.2194 356.0980 0001653  94.5664 265.5518 15.08842447 28741","PERIAPSIS":"538.594","TLE_LINE1":"1 54172U 22141R   23123.96309436  .00000127  00000-0  26093-4 0  9994","ARG_OF_PERICENTER":"94.5664","REF_FRAME":"TEME","LAUNCH_DATE":"2022-10-28","SEMIMAJOR_AXIS":"6917.873","TIME_SYSTEM":"UTC","COUNTRY_CODE":"US","EPHEMERIS_TYPE":"0","MEAN_ANOMALY":"265.5518","OBJECT_ID":"2022-141R","OBJECT_NAME":"STARLINK-5117","BSTAR":"0.00002609300000","CENTER_NAME":"EARTH","MEAN_MOTION":"15.08842447","OBJECT_TYPE":"PAYLOAD","MEAN_ELEMENT_THEORY":"SGP4","REV_AT_EPOCH":"2874","RA_OF_ASC_NODE":"356.0980","MEAN_MOTION_DOT":"0.00000127","ELEMENT_SET_NO":"999","APOAPSIS":"540.881"},{"MEAN_MOTION":"15.08843272","CENTER_NAME":"EARTH","BSTAR":"0.00004103400000","OBJECT_NAME":"STARLINK-5242","OBJECT_ID":"2022-141S","APOAPSIS":"540.523","ELEMENT_SET_NO":"999","MEAN_MOTION_DOT":"0.00000365","REV_AT_EPOCH":"2873","RA_OF_ASC_NODE":"356.1670","MEAN_ELEMENT_THEORY":"SGP4","OBJECT_TYPE":"PAYLOAD","PERIAPSIS":"538.947","TLE_LINE2":"2 54173  53.2175 356.1670 0001139  98.6794 261.4327 15.08843272 28735","INCLINATION":"53.2175","NORAD_CAT_ID":"54173","ECCENTRICITY":"0.00011390","MEAN_MOTION_DDOT":"0.0000000000000","FILE":"3900281","GP_ID":"231201387","PERIOD":"95.437","SITE":"AFWTR","RCS_SIZE":"LARGE","DECAY_DATE":null,"CLASSIFICATION_TYPE":"U","EPOCH":"2023-05-03T20:38:24.780192","MEAN_ANOMALY":"261.4327","EPHEMERIS_TYPE":"0","COUNTRY_CODE":"US","TIME_SYSTEM":"UTC","SEMIMAJOR_AXIS":"6917.870","LAUNCH_DATE":"2022-10-28","REF_FRAME":"TEME","ARG_OF_PERICENTER":"98.6794","TLE_LINE1":"1 54173U 22141S   23123.86000903  .00000365  00000-0  41034-4 0  9997"},{"MEAN_MOTION_DOT":"-0.00868358","RA_OF_ASC_NODE":"301.0862","REV_AT_EPOCH":"130","MEAN_ELEMENT_THEORY":"SGP4","OBJECT_TYPE":"PAYLOAD","APOAPSIS":"535.582","ELEMENT_SET_NO":"999","OBJECT_ID":"2022-141T","OBJECT_NAME":"STARLINK-5248","BSTAR":"-0.05610100000000","MEAN_MOTION":"15.10498965","CENTER_NAME":"EARTH","LAUNCH_DATE":"2022-10-28","SEMIMAJOR_AXIS":"6912.814","ARG_OF_PERICENTER":"83.0159","TLE_LINE1":"1 54174U 22141T   23123.91667824 -.00868358  00000-0 -56101-1 0  9999","REF_FRAME":"TEME","COUNTRY_CODE":"US","EPHEMERIS_TYPE":"0","MEAN_ANOMALY":"179.6581","TIME_SYSTEM":"UTC","ECCENTRICITY":"0.00013060","INCLINATION":"53.2115","NORAD_CAT_ID":"54174","SITE":"AFWTR","RCS_SIZE":"LARGE","DECAY_DATE":null,"EPOCH":"2023-05-03T22:00:00.999936","CLASSIFICATION_TYPE":"U","MEAN_MOTION_DDOT":"0.0000000000000","GP_ID":"231202136","FILE":"3900281","PERIOD":"95.333","PERIAPSIS":"533.776","TLE_LINE2":"2 54174  53.2115 301.0862 0001306  83.0159 179.6581 15.10498965  1305"},{"MEAN_MOTION_DOT":"0.00000772","REV_AT_EPOCH":"2873","MEAN_ELEMENT_THEORY":"SGP4","RA_OF_ASC_NODE":"356.4134","OBJECT_TYPE":"PAYLOAD","APOAPSIS":"540.531","ELEMENT_SET_NO":"999","OBJECT_ID":"2022-141U","OBJECT_NAME":"STARLINK-5256","BSTAR":"0.00006661300000","MEAN_MOTION":"15.08832955","CENTER_NAME":"EARTH","LAUNCH_DATE":"2022-10-28","SEMIMAJOR_AXIS":"6917.902","ARG_OF_PERICENTER":"112.5256","TLE_LINE1":"1 54175U 22141U   23123.90054924  .00000772  00000-0  66613-4 0  9998","REF_FRAME":"TEME","COUNTRY_CODE":"US","MEAN_ANOMALY":"247.5853","EPHEMERIS_TYPE":"0","TIME_SYSTEM":"UTC","ECCENTRICITY":"0.00011050","INCLINATION":"53.2179","NORAD_CAT_ID":"54175","RCS_SIZE":"LARGE","SITE":"AFWTR","CLASSIFICATION_TYPE":"U","DECAY_DATE":null,"EPOCH":"2023-05-03T21:36:47.454336","MEAN_MOTION_DDOT":"0.0000000000000","PERIOD":"95.438","GP_ID":"231200387","FILE":"3900281","PERIAPSIS":"539.002","TLE_LINE2":"2 54175  53.2179 356.4134 0001105 112.5256 247.5853 15.08832955 28736"},{"TLE_LINE2":"2 54176  53.2166 356.3290 0001283  91.4859 268.6280 15.08838910 28731","PERIAPSIS":"538.861","GP_ID":"231200637","PERIOD":"95.438","FILE":"3900281","MEAN_MOTION_DDOT":"0.0000000000000","CLASSIFICATION_TYPE":"U","DECAY_DATE":null,"EPOCH":"2023-05-03T21:15:33.466464","SITE":"AFWTR","RCS_SIZE":"LARGE","NORAD_CAT_ID":"54176","INCLINATION":"53.2166","ECCENTRICITY":"0.00012830","TIME_SYSTEM":"UTC","EPHEMERIS_TYPE":"0","MEAN_ANOMALY":"268.6280","COUNTRY_CODE":"US","REF_FRAME":"TEME","TLE_LINE1":"1 54176U 22141V   23123.88580401 -.00000281  00000-0  41374-6 0  9995","ARG_OF_PERICENTER":"91.4859","SEMIMAJOR_AXIS":"6917.884","LAUNCH_DATE":"2022-10-28","CENTER_NAME":"EARTH","MEAN_MOTION":"15.08838910","BSTAR":"0.00000041374000","OBJECT_NAME":"STARLINK-5154","OBJECT_ID":"2022-141V","ELEMENT_SET_NO":"999","APOAPSIS":"540.636","OBJECT_TYPE":"PAYLOAD","RA_OF_ASC_NODE":"356.3290","MEAN_ELEMENT_THEORY":"SGP4","REV_AT_EPOCH":"2873","MEAN_MOTION_DOT":"-0.00000281"},{"OBJECT_NAME":"STARLINK-5186","OBJECT_ID":"2022-141W","CENTER_NAME":"EARTH","MEAN_MOTION":"15.08840218","BSTAR":"0.00003999000000","OBJECT_TYPE":"PAYLOAD","MEAN_ELEMENT_THEORY":"SGP4","RA_OF_ASC_NODE":"356.3703","REV_AT_EPOCH":"2873","MEAN_MOTION_DOT":"0.00000349","ELEMENT_SET_NO":"999","APOAPSIS":"540.459","FILE":"3900281","GP_ID":"231201887","PERIOD":"95.438","MEAN_MOTION_DDOT":"0.0000000000000","CLASSIFICATION_TYPE":"U","DECAY_DATE":null,"EPOCH":"2023-05-03T21:26:10.131648","RCS_SIZE":"LARGE","SITE":"AFWTR","NORAD_CAT_ID":"54177","INCLINATION":"53.2178","ECCENTRICITY":"0.00010330","TLE_LINE2":"2 54177  53.2178 356.3703 0001033 101.2666 258.8442 15.08840218 28738","PERIAPSIS":"539.030","REF_FRAME":"TEME","TLE_LINE1":"1 54177U 22141W   23123.89317282  .00000349  00000-0  39990-4 0  9995","ARG_OF_PERICENTER":"101.2666","SEMIMAJOR_AXIS":"6917.880","LAUNCH_DATE":"2022-10-28","TIME_SYSTEM":"UTC","MEAN_ANOMALY":"258.8442","EPHEMERIS_TYPE":"0","COUNTRY_CODE":"US"},{"MEAN_ELEMENT_THEORY":"SGP4","RA_OF_ASC_NODE":"356.2889","REV_AT_EPOCH":"2873","MEAN_MOTION_DOT":"0.00000170","OBJECT_TYPE":"PAYLOAD","APOAPSIS":"540.443","ELEMENT_SET_NO":"999","OBJECT_NAME":"STARLINK-5164","OBJECT_ID":"2022-141X","CENTER_NAME":"EARTH","MEAN_MOTION":"15.08839128","BSTAR":"0.00002877700000","SEMIMAJOR_AXIS":"6917.883","LAUNCH_DATE":"2022-10-28","REF_FRAME":"TEME","TLE_LINE1":"1 54178U 22141X   23123.88307464  .00000170  00000-0  28777-4 0  9999","ARG_OF_PERICENTER":"85.6406","MEAN_ANOMALY":"274.4701","EPHEMERIS_TYPE":"0","COUNTRY_CODE":"US","TIME_SYSTEM":"UTC","NORAD_CAT_ID":"54178","INCLINATION":"53.2165","ECCENTRICITY":"0.00010050","GP_ID":"231201637","PERIOD":"95.438","FILE":"3900281","MEAN_MOTION_DDOT":"0.0000000000000","CLASSIFICATION_TYPE":"U","DECAY_DATE":null,"EPOCH":"2023-05-03T21:11:37.648896","RCS_SIZE":"LARGE","SITE":"AFWTR","PERIAPSIS":"539.053","TLE_LINE2":"2 54178  53.2165 356.2889 0001005  85.6406 274.4701 15.08839128 28735"},{"OBJECT_ID":"2022-141Y","OBJECT_NAME":"STARLINK-5122","BSTAR":"-0.00013428000000","MEAN_MOTION":"15.08840550","CENTER_NAME":"EARTH","OBJECT_TYPE":"PAYLOAD","MEAN_MOTION_DOT":"-0.00002424","MEAN_ELEMENT_THEORY":"SGP4","REV_AT_EPOCH":"2873","RA_OF_ASC_NODE":"356.3494","ELEMENT_SET_NO":"999","APOAPSIS":"540.691","SITE":"AFWTR","RCS_SIZE":"LARGE","DECAY_DATE":null,"EPOCH":"2023-05-03T21:20:51.978336","CLASSIFICATION_TYPE":"U","MEAN_MOTION_DDOT":"0.0000000000000","GP_ID":"231200887","PERIOD":"95.438","FILE":"3900281","ECCENTRICITY":"0.00013700","INCLINATION":"53.2171","NORAD_CAT_ID":"54179","TLE_LINE2":"2 54179  53.2171 356.3494 0001370  98.2567 261.8581 15.08840550 28736","PERIAPSIS":"538.796","ARG_OF_PERICENTER":"98.2567","TLE_LINE1":"1 54179U 22141Y   23123.88949049 -.00002424  00000-0 -13428-3 0  9993","REF_FRAME":"TEME","LAUNCH_DATE":"2022-10-28","SEMIMAJOR_AXIS":"6917.879","TIME_SYSTEM":"UTC","COUNTRY_CODE":"US","EPHEMERIS_TYPE":"0","MEAN_ANOMALY":"261.8581"},{"OBJECT_ID":"2022-141Z","OBJECT_NAME":"STARLINK-5228","BSTAR":"-0.00004608700000","CENTER_NAME":"EARTH","MEAN_MOTION":"15.08838065","RA_OF_ASC_NODE":"356.2168","REV_AT_EPOCH":"2873","MEAN_ELEMENT_THEORY":"SGP4","MEAN_MOTION_DOT":"-0.00001021","OBJECT_TYPE":"PAYLOAD","APOAPSIS":"540.622","ELEMENT_SET_NO":"999","ECCENTRICITY":"0.00012590","NORAD_CAT_ID":"54180","INCLINATION":"53.2175","DECAY_DATE":null,"CLASSIFICATION_TYPE":"U","EPOCH":"2023-05-03T20:49:01.587072","RCS_SIZE":"LARGE","SITE":"AFWTR","FILE":"3900281","GP_ID":"231201137","PERIOD":"95.438","MEAN_MOTION_DDOT":"0.0000000000000","PERIAPSIS":"538.880","TLE_LINE2":"2 54180  53.2175 356.2168 0001259  89.6620 270.4516 15.08838065 28731","LAUNCH_DATE":"2022-10-28","SEMIMAJOR_AXIS":"6917.886","TLE_LINE1":"1 54180U 22141Z   23123.86737948 -.00001021  00000-0 -46087-4 0  9996","ARG_OF_PERICENTER":"89.6620","REF_FRAME":"TEME","COUNTRY_CODE":"US","MEAN_ANOMALY":"270.4516","EPHEMERIS_TYPE":"0","TIME_SYSTEM":"UTC"},{"PERIAPSIS":"539.046","TLE_LINE2":"2 54181  53.2165 356.2814 0001050  92.9758 267.1354 15.08831253 28732","ECCENTRICITY":"0.00010500","NORAD_CAT_ID":"54181","INCLINATION":"53.2165","DECAY_DATE":null,"EPOCH":"2023-05-03T21:04:56.871264","CLASSIFICATION_TYPE":"U","RCS_SIZE":"LARGE","SITE":"AFWTR","GP_ID":"231201388","PERIOD":"95.438","FILE":"3900281","MEAN_MOTION_DDOT":"0.0000000000000","COUNTRY_CODE":"US","EPHEMERIS_TYPE":"0","MEAN_ANOMALY":"267.1354","TIME_SYSTEM":"UTC","LAUNCH_DATE":"2022-10-28","SEMIMAJOR_AXIS":"6917.907","TLE_LINE1":"1 54181U 22141AA  23123.87843601 -.00001845  00000-0 -97921-4 0  9999","ARG_OF_PERICENTER":"92.9758","REF_FRAME":"TEME","BSTAR":"-0.00009792100000","CENTER_NAME":"EARTH","MEAN_MOTION":"15.08831253","OBJECT_ID":"2022-141AA","OBJECT_NAME":"STARLINK-5227","APOAPSIS":"540.499","ELEMENT_SET_NO":"999","RA_OF_ASC_NODE":"356.2814","REV_AT_EPOCH":"2873","MEAN_ELEMENT_THEORY":"SGP4","MEAN_MOTION_DOT":"-0.00001845","OBJECT_TYPE":"PAYLOAD"}];
